{"type": "FeatureCollection", "features": [ {"type": "Feature", "properties": {"norad_id": 17070, "name": "POLAR BEAR", "group": "nnss", "lat": 29.79173863119568, "lon": -176.27263501033167, "alt_km": 968.9132890310611, "timestamp": "2025-12-19T08:58:49.606938+00:00", "meta": {"OBJECT_NAME": "POLAR BEAR", "OBJECT_ID": "1986-088A", "EPOCH": "2025-12-18T23:11:21.504768", "MEAN_MOTION": 13.75252074, "ECCENTRICITY": 0.00412388, "INCLINATION": 89.617, "RA_OF_ASC_NODE": 183.5244, "ARG_OF_PERICENTER": 101.3082, "MEAN_ANOMALY": 70.4628, "EPHEMERIS_TYPE": 0, "CLASSIFICATION_TYPE": "U", "NORAD_CAT_ID": 17070, "ELEMENT_SET_NO": 999, "REV_AT_EPOCH": 96064, "BSTAR": 0.00010453413, "MEAN_MOTION_DOT": 1.12e-06, "MEAN_MOTION_DDOT": 0}, "tle": {"line1": "1 17070U 86088A   25352.96622112  .00000112  00000+0  10453-3 0  9990", "line2": "2 17070  89.6170 183.5244 0041238 101.3082  70.4628 13.75252074960646"}}, "geometry": {"type": "Point", "coordinates": [-176.27263501033167, 29.79173863119568]}}, {"type": "Feature", "properties": {"norad_id": 18361, "name": "OSCAR 27", "group": "nnss", "lat": -74.81012206834251, "lon": 80.89979023529693, "alt_km": 1085.031049357056, "timestamp": "2025-12-19T08:58:49.606949+00:00", "meta": {"OBJECT_NAME": "OSCAR 27", "OBJECT_ID": "1987-080A", "EPOCH": "2025-12-18T19:04:14.075040", "MEAN_MOTION": 13.44907928, "ECCENTRICITY": 0.01033958, "INCLINATION": 90.3742, "RA_OF_ASC_NODE": 79.4989, "ARG_OF_PERICENTER": 206.3209, "MEAN_ANOMALY": 153.2665, "EPHEMERIS_TYPE": 0, "CLASSIFICATION_TYPE": "U", "NORAD_CAT_ID": 18361, "ELEMENT_SET_NO": 999, "REV_AT_EPOCH": 87638, "BSTAR": 0.00014935073, "MEAN_MOTION_DOT": 9.8e-07, "MEAN_MOTION_DDOT": 0}, "tle": {"line1": "1 18361U 87080A   25352.79460735  .00000098  00000+0  14935-3 0  9991", "line2": "2 18361  90.3742  79.4989 0103395 206.3209 153.2665 13.44907928876382"}}, "geometry": {"type": "Point", "coordinates": [80.89979023529693, -74.81012206834251]}}, {"type": "Feature", "properties": {"norad_id": 18362, "name": "OSCAR 29", "group": "nnss", "lat": -73.70526694729878, "lon": 81.26428679533713, "alt_km": 1058.7493987679482, "timestamp": "2025-12-19T08:58:49.606959+00:00", "meta": {"OBJECT_NAME": "OSCAR 29", "OBJECT_ID": "1987-080B", "EPOCH": "2025-12-18T19:40:11.741376", "MEAN_MOTION": 13.44449506, "ECCENTRICITY": 0.01042674, "INCLINATION": 90.3752, "RA_OF_ASC_NODE": 79.9591, "ARG_OF_PERICENTER": 229.5196, "MEAN_ANOMALY": 253.0826, "EPHEMERIS_TYPE": 0, "CLASSIFICATION_TYPE": "U", "NORAD_CAT_ID": 18362, "ELEMENT_SET_NO": 999, "REV_AT_EPOCH": 87591, "BSTAR": 0.0001394473, "MEAN_MOTION_DOT": 9.1e-07, "MEAN_MOTION_DDOT": 0}, "tle": {"line1": "1 18362U 87080B   25352.81958034  .00000091  00000+0  13945-3 0  9992", "line2": "2 18362  90.3752  79.9591 0104267 229.5196 253.0826 13.44449506875918"}}, "geometry": {"type": "Point", "coordinates": [81.26428679533713, -73.70526694729878]}}, {"type": "Feature", "properties": {"norad_id": 19070, "name": "OSCAR 23", "group": "nnss", "lat": 21.743784879774054, "lon": 16.470382234298192, "alt_km": 1262.8160928403458, "timestamp": "2025-12-19T08:58:49.606969+00:00", "meta": {"OBJECT_NAME": "OSCAR 23", "OBJECT_ID": "1988-033A", "EPOCH": "2025-12-18T13:48:21.612960", "MEAN_MOTION": 13.27788153, "ECCENTRICITY": 0.01900114, "INCLINATION": 90.3207, "RA_OF_ASC_NODE": 16.5735, "ARG_OF_PERICENTER": 163.7148, "MEAN_ANOMALY": 2.8387, "EPHEMERIS_TYPE": 0, "CLASSIFICATION_TYPE": "U", "NORAD_CAT_ID": 19070, "ELEMENT_SET_NO": 999, "REV_AT_EPOCH": 82330, "BSTAR": 0.00020120685, "MEAN_MOTION_DOT": 1.09e-06, "MEAN_MOTION_DDOT": 0}, "tle": {"line1": "1 19070U 88033A   25352.57525015  .00000109  00000+0  20121-3 0  9994", "line2": "2 19070  90.3207  16.5735 0190011 163.7148   2.8387 13.27788153823308"}}, "geometry": {"type": "Point", "coordinates": [16.470382234298192, 21.743784879774054]}}, {"type": "Feature", "properties": {"norad_id": 19071, "name": "OSCAR 32", "group": "nnss", "lat": 42.773277041653266, "lon": -162.97215247044088, "alt_km": 1011.3484509751661, "timestamp": "2025-12-19T08:58:49.606979+00:00", "meta": {"OBJECT_NAME": "OSCAR 32", "OBJECT_ID": "1988-033B", "EPOCH": "2025-12-18T23:34:54.805728", "MEAN_MOTION": 13.27954975, "ECCENTRICITY": 0.01888304, "INCLINATION": 90.3211, "RA_OF_ASC_NODE": 16.7184, "ARG_OF_PERICENTER": 149.4873, "MEAN_ANOMALY": 277.0372, "EPHEMERIS_TYPE": 0, "CLASSIFICATION_TYPE": "U", "NORAD_CAT_ID": 19071, "ELEMENT_SET_NO": 999, "REV_AT_EPOCH": 82348, "BSTAR": 0.00017255044, "MEAN_MOTION_DOT": 9.5e-07, "MEAN_MOTION_DDOT": 0}, "tle": {"line1": "1 19071U 88033B   25352.98257877  .00000095  00000+0  17255-3 0  9996", "line2": "2 19071  90.3211  16.7184 0188830 149.4873 277.0372 13.27954975823482"}}, "geometry": {"type": "Point", "coordinates": [-162.97215247044088, 42.773277041653266]}}, {"type": "Feature", "properties": {"norad_id": 19223, "name": "NOVA 2", "group": "nnss", "lat": -35.00173328111149, "lon": -101.72664400560325, "alt_km": 1198.0664227253637, "timestamp": "2025-12-19T08:58:49.606990+00:00", "meta": {"OBJECT_NAME": "NOVA 2", "OBJECT_ID": "1988-052A", "EPOCH": "2025-12-18T19:46:28.243200", "MEAN_MOTION": 13.22936403, "ECCENTRICITY": 0.00300711, "INCLINATION": 89.9871, "RA_OF_ASC_NODE": 78.265, "ARG_OF_PERICENTER": 0.1721, "MEAN_ANOMALY": 115.861, "EPHEMERIS_TYPE": 0, "CLASSIFICATION_TYPE": "U", "NORAD_CAT_ID": 19223, "ELEMENT_SET_NO": 999, "REV_AT_EPOCH": 81028, "BSTAR": 0.00013396431, "MEAN_MOTION_DOT": 6.5e-07, "MEAN_MOTION_DDOT": 0}, "tle": {"line1": "1 19223U 88052A   25352.82393800  .00000065  00000+0  13396-3 0  9995", "line2": "2 19223  89.9871  78.2650 0030071   0.1721 115.8610 13.22936403810285"}}, "geometry": {"type": "Point", "coordinates": [-101.72664400560325, -35.00173328111149]}}, {"type": "Feature", "properties": {"norad_id": 19419, "name": "OSCAR 25", "group": "nnss", "lat": 40.9064427282643, "lon": 20.236352337227803, "alt_km": 1166.8096982014758, "timestamp": "2025-12-19T08:58:49.607001+00:00", "meta": {"OBJECT_NAME": "OSCAR 25", "OBJECT_ID": "1988-074A", "EPOCH": "2025-12-18T13:56:01.747392", "MEAN_MOTION": 13.42624451, "ECCENTRICITY": 0.0094746, "INCLINATION": 90.0342, "RA_OF_ASC_NODE": 20.2633, "ARG_OF_PERICENTER": 228.9225, "MEAN_ANOMALY": 298.3513, "EPHEMERIS_TYPE": 0, "CLASSIFICATION_TYPE": "U", "NORAD_CAT_ID": 19419, "ELEMENT_SET_NO": 999, "REV_AT_EPOCH": 82718, "BSTAR": 0.00017289494, "MEAN_MOTION_DOT": 1.09e-06, "MEAN_MOTION_DDOT": 0}, "tle": {"line1": "1 19419U 88074A   25352.58057578  .00000109  00000+0  17289-3 0  9992", "line2": "2 19419  90.0342  20.2633 0094746 228.9225 298.3513 13.42624451827189"}}, "geometry": {"type": "Point", "coordinates": [20.236352337227803, 40.9064427282643]}}, {"type": "Feature", "properties": {"norad_id": 19420, "name": "OSCAR 31", "group": "nnss", "lat": -75.35188532628676, "lon": 20.753669270814147, "alt_km": 1075.9298121239608, "timestamp": "2025-12-19T08:58:49.607011+00:00", "meta": {"OBJECT_NAME": "OSCAR 31", "OBJECT_ID": "1988-074B", "EPOCH": "2025-12-18T16:03:55.304640", "MEAN_MOTION": 13.42585606, "ECCENTRICITY": 0.00931045, "INCLINATION": 90.0357, "RA_OF_ASC_NODE": 20.6145, "ARG_OF_PERICENTER": 222.7988, "MEAN_ANOMALY": 256.4452, "EPHEMERIS_TYPE": 0, "CLASSIFICATION_TYPE": "U", "NORAD_CAT_ID": 19420, "ELEMENT_SET_NO": 999, "REV_AT_EPOCH": 82730, "BSTAR": 0.00014634403, "MEAN_MOTION_DOT": 9.4e-07, "MEAN_MOTION_DDOT": 0}, "tle": {"line1": "1 19420U 88074B   25352.66939010  .00000094  00000+0  14634-3 0  9997", "line2": "2 19420  90.0357  20.6145 0093104 222.7988 256.4452 13.42585606827303"}}, "geometry": {"type": "Point", "coordinates": [20.753669270814147, -75.35188532628676]}}]}